HULIANWANG DIGUI-81     
1 65313U 25187J   26064.90756063 -.00000092  00000+0  69029-4 0  9996
2 65313  50.0057 216.2412 0001060 139.1261 220.9691 13.29341443 25971
HULIANWANG DIGUI-82     
1 65817U 25220A   26064.96563704  .00000048  00000+0  76692-4 0  9991
2 65817  86.4896  78.7239 0002265 100.2668 259.8722 13.24421877 21258
HULIANWANG DIGUI-83     
1 65818U 25220B   26064.95813195  .00000035  00000+0  48144-4 0  9990
2 65818  86.4919  78.7569 0002258 100.2621 259.8768 13.24421077 21254
HULIANWANG DIGUI-84     
1 65819U 25220C   26064.95054979  .00000032  00000+0  41094-4 0  9992
2 65819  86.4856  78.6500 0002251  99.4645 260.6743 13.24421551 21257
HULIANWANG DIGUI-85     
1 65820U 25220D   26064.94294871  .00000021  00000+0  14286-4 0  9991
2 65820  86.4917  78.7471 0002246 100.8359 259.3028 13.24422057 21251
HULIANWANG DIGUI-86     
1 65821U 25220E   26064.93548245  .00000028  00000+0  31185-4 0  9992
2 65821  86.4896  78.7082 0002242 100.2842 259.8545 13.24420926 21255
HULIANWANG DIGUI-87     
1 65995U 25231A   26064.86878360 -.00000089  00000+0  76286-4 0  9991
2 65995  49.9991 186.4277 0000606 185.6391 174.4474 13.29330271 19144
HULIANWANG DIGUI-88     
1 65996U 25231B   26064.87715975 -.00000083  00000+0  88535-4 0  9999
2 65996  49.9978 186.4576 0000628 191.2668 168.8190 13.29329373 19149
HULIANWANG DIGUI-89     
1 65997U 25231C   26064.86042803 -.00000079  00000+0  98087-4 0  9990
2 65997  49.9955 186.3447 0000638 191.7086 168.3772 13.29329970 19145
HULIANWANG DIGUI-90     
1 65998U 25231D   26064.70171580 -.00000087  00000+0  79074-4 0  9993
2 65998  49.9984 186.8740 0000609 191.8033 168.2825 13.29330107 19120
HULIANWANG DIGUI-91     
1 65999U 25231E   26064.84372275 -.00000089  00000+0  74506-4 0  9990
2 65999  50.0003 186.3154 0000624 191.1149 168.9709 13.29330064 19140
HULIANWANG DIGUI-92     
1 66000U 25231F   26064.83535907 -.00000087  00000+0  80333-4 0  9999
2 66000  50.0044 186.3173 0000627 191.9104 168.1753 13.29330605 19144
HULIANWANG DIGUI-93     
1 66001U 25231G   26064.89386595 -.00000082  00000+0  90954-4 0  9998
2 66001  50.0012 185.9277 0000610 191.7618 168.3240 13.29329739 19150
HULIANWANG DIGUI-94     
1 66002U 25231H   26064.90218668 -.00000084  00000+0  85378-4 0  9992
2 66002  50.0051 186.0158 0000627 192.7913 167.2943 13.29330876 19153
HULIANWANG DIGUI-95     
1 66003U 25231J   26064.88565830 -.00000086  00000+0  82630-4 0  9996
2 66003  50.0023 185.8993 0000632 189.8642 170.2218 13.29325826 19157
HULIANWANG DIGUI-96     
1 66412U 25258A   26064.90913891 -.00000063  00000+0  13117-3 0  9994
2 66412  50.0049 306.0491 0000397 100.0177 260.0740 13.29331488 15992
