[{"OBJECT_NAME":"HULIANWANG DIGUI-81","OBJECT_ID":"2025-187J","EPOCH":"2026-03-05T21:46:53.238432","MEAN_MOTION":13.29341443,"ECCENTRICITY":0.00010602,"INCLINATION":50.0057,"RA_OF_ASC_NODE":216.2412,"ARG_OF_PERICENTER":139.1261,"MEAN_ANOMALY":220.9691,"EPHEMERIS_TYPE":0,"CLASSIFICATION_TYPE":"U","NORAD_CAT_ID":65313,"ELEMENT_SET_NO":999,"REV_AT_EPOCH":2597,"BSTAR":6.902869e-5,"MEAN_MOTION_DOT":-9.2e-7,"MEAN_MOTION_DDOT":0},{"OBJECT_NAME":"HULIANWANG DIGUI-82","OBJECT_ID":"2025-220A","EPOCH":"2026-03-05T23:10:31.040256","MEAN_MOTION":13.24421877,"ECCENTRICITY":0.00022656,"INCLINATION":86.4896,"RA_OF_ASC_NODE":78.7239,"ARG_OF_PERICENTER":100.2668,"MEAN_ANOMALY":259.8722,"EPHEMERIS_TYPE":0,"CLASSIFICATION_TYPE":"U","NORAD_CAT_ID":65817,"ELEMENT_SET_NO":999,"REV_AT_EPOCH":2125,"BSTAR":7.6691702e-5,"MEAN_MOTION_DOT":4.8e-7,"MEAN_MOTION_DDOT":0},{"OBJECT_NAME":"HULIANWANG DIGUI-83","OBJECT_ID":"2025-220B","EPOCH":"2026-03-05T22:59:42.600480","MEAN_MOTION":13.24421077,"ECCENTRICITY":0.00022586,"INCLINATION":86.4919,"RA_OF_ASC_NODE":78.7569,"ARG_OF_PERICENTER":100.2621,"MEAN_ANOMALY":259.8768,"EPHEMERIS_TYPE":0,"CLASSIFICATION_TYPE":"U","NORAD_CAT_ID":65818,"ELEMENT_SET_NO":999,"REV_AT_EPOCH":2125,"BSTAR":4.8143525e-5,"MEAN_MOTION_DOT":3.5e-7,"MEAN_MOTION_DDOT":0},{"OBJECT_NAME":"HULIANWANG DIGUI-84","OBJECT_ID":"2025-220C","EPOCH":"2026-03-05T22:48:47.501856","MEAN_MOTION":13.24421551,"ECCENTRICITY":0.00022517,"INCLINATION":86.4856,"RA_OF_ASC_NODE":78.65,"ARG_OF_PERICENTER":99.4645,"MEAN_ANOMALY":260.6743,"EPHEMERIS_TYPE":0,"CLASSIFICATION_TYPE":"U","NORAD_CAT_ID":65819,"ELEMENT_SET_NO":999,"REV_AT_EPOCH":2125,"BSTAR":4.1094322e-5,"MEAN_MOTION_DOT":3.2e-7,"MEAN_MOTION_DDOT":0},{"OBJECT_NAME":"HULIANWANG DIGUI-85","OBJECT_ID":"2025-220D","EPOCH":"2026-03-05T22:37:50.768544","MEAN_MOTION":13.24422057,"ECCENTRICITY":0.00022464,"INCLINATION":86.4917,"RA_OF_ASC_NODE":78.7471,"ARG_OF_PERICENTER":100.8359,"MEAN_ANOMALY":259.3028,"EPHEMERIS_TYPE":0,"CLASSIFICATION_TYPE":"U","NORAD_CAT_ID":65820,"ELEMENT_SET_NO":999,"REV_AT_EPOCH":2125,"BSTAR":1.4286277e-5,"MEAN_MOTION_DOT":2.1e-7,"MEAN_MOTION_DDOT":0},{"OBJECT_NAME":"HULIANWANG DIGUI-86","OBJECT_ID":"2025-220E","EPOCH":"2026-03-05T22:27:05.683680","MEAN_MOTION":13.24420926,"ECCENTRICITY":0.00022427,"INCLINATION":86.4896,"RA_OF_ASC_NODE":78.7082,"ARG_OF_PERICENTER":100.2842,"MEAN_ANOMALY":259.8545,"EPHEMERIS_TYPE":0,"CLASSIFICATION_TYPE":"U","NORAD_CAT_ID":65821,"ELEMENT_SET_NO":999,"REV_AT_EPOCH":2125,"BSTAR":3.1184831e-5,"MEAN_MOTION_DOT":2.8e-7,"MEAN_MOTION_DDOT":0},{"OBJECT_NAME":"HULIANWANG DIGUI-87","OBJECT_ID":"2025-231A","EPOCH":"2026-03-05T20:51:02.903040","MEAN_MOTION":13.29330271,"ECCENTRICITY":6.065e-5,"INCLINATION":49.9991,"RA_OF_ASC_NODE":186.4277,"ARG_OF_PERICENTER":185.6391,"MEAN_ANOMALY":174.4474,"EPHEMERIS_TYPE":0,"CLASSIFICATION_TYPE":"U","NORAD_CAT_ID":65995,"ELEMENT_SET_NO":999,"REV_AT_EPOCH":1914,"BSTAR":7.6286414e-5,"MEAN_MOTION_DOT":-8.9e-7,"MEAN_MOTION_DDOT":0},{"OBJECT_NAME":"HULIANWANG DIGUI-88","OBJECT_ID":"2025-231B","EPOCH":"2026-03-05T21:03:06.602400","MEAN_MOTION":13.29329373,"ECCENTRICITY":6.281e-5,"INCLINATION":49.9978,"RA_OF_ASC_NODE":186.4576,"ARG_OF_PERICENTER":191.2668,"MEAN_ANOMALY":168.819,"EPHEMERIS_TYPE":0,"CLASSIFICATION_TYPE":"U","NORAD_CAT_ID":65996,"ELEMENT_SET_NO":999,"REV_AT_EPOCH":1914,"BSTAR":8.8535146e-5,"MEAN_MOTION_DOT":-8.3e-7,"MEAN_MOTION_DDOT":0},{"OBJECT_NAME":"HULIANWANG DIGUI-89","OBJECT_ID":"2025-231C","EPOCH":"2026-03-05T20:39:00.981792","MEAN_MOTION":13.2932997,"ECCENTRICITY":6.385e-5,"INCLINATION":49.9955,"RA_OF_ASC_NODE":186.3447,"ARG_OF_PERICENTER":191.7086,"MEAN_ANOMALY":168.3772,"EPHEMERIS_TYPE":0,"CLASSIFICATION_TYPE":"U","NORAD_CAT_ID":65997,"ELEMENT_SET_NO":999,"REV_AT_EPOCH":1914,"BSTAR":9.808664e-5,"MEAN_MOTION_DOT":-7.9e-7,"MEAN_MOTION_DDOT":0},{"OBJECT_NAME":"HULIANWANG DIGUI-90","OBJECT_ID":"2025-231D","EPOCH":"2026-03-05T16:50:28.245120","MEAN_MOTION":13.29330107,"ECCENTRICITY":6.095e-5,"INCLINATION":49.9984,"RA_OF_ASC_NODE":186.874,"ARG_OF_PERICENTER":191.8033,"MEAN_ANOMALY":168.2825,"EPHEMERIS_TYPE":0,"CLASSIFICATION_TYPE":"U","NORAD_CAT_ID":65998,"ELEMENT_SET_NO":999,"REV_AT_EPOCH":1912,"BSTAR":7.9073959e-5,"MEAN_MOTION_DOT":-8.7e-7,"MEAN_MOTION_DDOT":0},{"OBJECT_NAME":"HULIANWANG DIGUI-91","OBJECT_ID":"2025-231E","EPOCH":"2026-03-05T20:14:57.645600","MEAN_MOTION":13.29330064,"ECCENTRICITY":6.244e-5,"INCLINATION":50.0003,"RA_OF_ASC_NODE":186.3154,"ARG_OF_PERICENTER":191.1149,"MEAN_ANOMALY":168.9709,"EPHEMERIS_TYPE":0,"CLASSIFICATION_TYPE":"U","NORAD_CAT_ID":65999,"ELEMENT_SET_NO":999,"REV_AT_EPOCH":1914,"BSTAR":7.4505947e-5,"MEAN_MOTION_DOT":-8.9e-7,"MEAN_MOTION_DDOT":0},{"OBJECT_NAME":"HULIANWANG DIGUI-92","OBJECT_ID":"2025-231F","EPOCH":"2026-03-05T20:02:55.023648","MEAN_MOTION":13.29330605,"ECCENTRICITY":6.273e-5,"INCLINATION":50.0044,"RA_OF_ASC_NODE":186.3173,"ARG_OF_PERICENTER":191.9104,"MEAN_ANOMALY":168.1753,"EPHEMERIS_TYPE":0,"CLASSIFICATION_TYPE":"U","NORAD_CAT_ID":66000,"ELEMENT_SET_NO":999,"REV_AT_EPOCH":1914,"BSTAR":8.0333454e-5,"MEAN_MOTION_DOT":-8.7e-7,"MEAN_MOTION_DDOT":0},{"OBJECT_NAME":"HULIANWANG DIGUI-93","OBJECT_ID":"2025-231G","EPOCH":"2026-03-05T21:27:10.018080","MEAN_MOTION":13.29329739,"ECCENTRICITY":6.107e-5,"INCLINATION":50.0012,"RA_OF_ASC_NODE":185.9277,"ARG_OF_PERICENTER":191.7618,"MEAN_ANOMALY":168.324,"EPHEMERIS_TYPE":0,"CLASSIFICATION_TYPE":"U","NORAD_CAT_ID":66001,"ELEMENT_SET_NO":999,"REV_AT_EPOCH":1915,"BSTAR":9.0953893e-5,"MEAN_MOTION_DOT":-8.2e-7,"MEAN_MOTION_DDOT":0},{"OBJECT_NAME":"HULIANWANG DIGUI-94","OBJECT_ID":"2025-231H","EPOCH":"2026-03-05T21:39:08.929152","MEAN_MOTION":13.29330876,"ECCENTRICITY":6.276e-5,"INCLINATION":50.0051,"RA_OF_ASC_NODE":186.0158,"ARG_OF_PERICENTER":192.7913,"MEAN_ANOMALY":167.2943,"EPHEMERIS_TYPE":0,"CLASSIFICATION_TYPE":"U","NORAD_CAT_ID":66002,"ELEMENT_SET_NO":999,"REV_AT_EPOCH":1915,"BSTAR":8.537848e-5,"MEAN_MOTION_DOT":-8.4e-7,"MEAN_MOTION_DDOT":0},{"OBJECT_NAME":"HULIANWANG DIGUI-95","OBJECT_ID":"2025-231J","EPOCH":"2026-03-05T21:15:20.877120","MEAN_MOTION":13.29325826,"ECCENTRICITY":6.326e-5,"INCLINATION":50.0023,"RA_OF_ASC_NODE":185.8993,"ARG_OF_PERICENTER":189.8642,"MEAN_ANOMALY":170.2218,"EPHEMERIS_TYPE":0,"CLASSIFICATION_TYPE":"U","NORAD_CAT_ID":66003,"ELEMENT_SET_NO":999,"REV_AT_EPOCH":1915,"BSTAR":8.262955e-5,"MEAN_MOTION_DOT":-8.6e-7,"MEAN_MOTION_DDOT":0},{"OBJECT_NAME":"HULIANWANG DIGUI-96","OBJECT_ID":"2025-258A","EPOCH":"2026-03-05T21:49:09.601824","MEAN_MOTION":13.29331488,"ECCENTRICITY":3.975e-5,"INCLINATION":50.0049,"RA_OF_ASC_NODE":306.0491,"ARG_OF_PERICENTER":100.0177,"MEAN_ANOMALY":260.074,"EPHEMERIS_TYPE":0,"CLASSIFICATION_TYPE":"U","NORAD_CAT_ID":66412,"ELEMENT_SET_NO":999,"REV_AT_EPOCH":1599,"BSTAR":0.00013117208,"MEAN_MOTION_DOT":-6.3e-7,"MEAN_MOTION_DDOT":0}]
